1 42005U 17008BK  20213.73299449  .00002109  00000-0  79165-4 0  9996
2 42005  97.3640 282.2059 0008338 143.1177 217.0638 15.28299901192427
1 42005U 17008BK  20213.86394330  .00002358  00000-0  88179-4 0  9996
2 42005  97.3640 282.3354 0008347 142.7057 217.4763 15.28301135192457
1 42005U 17008BK  20214.19131534  .00002204  00000-0  82594-4 0  9993
2 42005  97.3640 282.6590 0008365 141.7143 218.4692 15.28301970192502
1 42005U 17008BK  20214.91153248  .00002246  00000-0  84100-4 0  9990
2 42005  97.3640 283.3710 0008426 139.5586 220.6281 15.28305034192614
1 42005U 17008BK  20215.17342928  .00002263  00000-0  84702-4 0  9991
2 42005  97.3639 283.6300 0008439 138.8264 221.3614 15.28306199192643
1 42005U 17008BK  20215.69722223  .00002306  00000-0  86263-4 0  9990
2 42005  97.3639 284.1478 0008481 137.2760 222.9141 15.28308607192734
1 42005U 17008BK  20216.22101358  .00002601  00000-0  96943-4 0  9994
2 42005  97.3638 284.6656 0008522 135.7759 224.4163 15.28312219192806
1 42005U 17008BK  20216.87575162  .00002802  00000-0  10423-3 0  9994
2 42005  97.3637 285.3129 0008579 133.8828 226.3121 15.28316161192913
1 42005U 17008BK  20217.26859363  .00002994  00000-0  11116-3 0  9998
2 42005  97.3636 285.7013 0008604 132.7494 227.4471 15.28318904192966
1 42005U 17008BK  20217.85785553  .00002993  00000-0  11112-3 0  9997
2 42005  97.3634 286.2839 0008640 130.9648 229.2340 15.28322189193064
1 42005U 17008BK  20218.44711579  .00002969  00000-0  11024-3 0  9995
2 42005  97.3633 286.8665 0008685 129.2596 230.9415 15.28325743193148
1 42005U 17008BK  20218.83995546  .00002761  00000-0  10270-3 0  9998
2 42005  97.3632 287.2549 0008708 128.1308 232.0717 15.28327467193219
1 42005U 17008BK  20219.42921329  .00002728  00000-0  10150-3 0  9992
2 42005  97.3630 287.8374 0008726 126.4374 233.7671 15.28331187193304
1 42005U 17008BK  20219.82205127  .00002657  00000-0  98892-4 0  9998
2 42005  97.3630 288.2258 0008732 125.2507 234.9551 15.28333431193362
1 42005U 17008BK  20220.28036148  .00002609  00000-0  97154-4 0  9992
2 42005  97.3629 288.6789 0008753 123.9694 236.2379 15.28336049193437
1 42005U 17008BK  20220.86961671  .00002481  00000-0  92521-4 0  9995
2 42005  97.3628 289.2614 0008788 122.2012 238.0080 15.28338780193527
1 42005U 17008BK  20221.32792526  .00002606  00000-0  97016-4 0  9991
2 42005  97.3626 289.7144 0008807 120.8786 239.3321 15.28341696193580
1 42005U 17008BK  20221.72076092  .00002525  00000-0  94107-4 0  9996
2 42005  97.3626 290.1028 0008822 119.7253 240.4866 15.28343424193656
1 42005U 17008BK  20222.44095808  .00002406  00000-0  89784-4 0  9995
2 42005  97.3625 290.8148 0008852 117.7390 242.4748 15.28346624193755
1 42005U 17008BK  20222.83379205  .00002422  00000-0  90365-4 0  9999
2 42005  97.3624 291.2031 0008861 116.6433 243.5716 15.28348747193829
1 42005U 17008BK  20223.29209776  .00002384  00000-0  88972-4 0  9993
2 42005  97.3624 291.6561 0008863 115.3088 244.9071 15.28351018193896
1 42005U 17008BK  20223.94681893  .00002402  00000-0  89628-4 0  9999
2 42005  97.3624 292.3032 0008888 113.4160 246.8016 15.28354421193996
1 42005U 17008BK  20224.14323496  .00002404  00000-0  89675-4 0  9998
2 42005  97.3624 292.4974 0008887 112.8370 247.3809 15.28355491194015
1 42005U 17008BK  20224.92889840  .00002328  00000-0  86918-4 0  9996
2 42005  97.3624 293.2739 0008931 110.6287 249.5911 15.28358896194140
1 42005U 17008BK  20225.25625758  .00002250  00000-0  84099-4 0  9991
2 42005  97.3624 293.5975 0008939 109.6827 250.5378 15.28360248194188
1 42005U 17008BK  20225.84550329  .00002262  00000-0  84534-4 0  9994
2 42005  97.3625 294.1799 0008956 108.0052 252.2164 15.28363016194281
1 42005U 17008BK  20226.17286151  .00002236  00000-0  83591-4 0  9993
2 42005  97.3625 294.5035 0008956 107.0818 253.1403 15.28364499194335
1 42005U 17008BK  20226.63116257  .00002200  00000-0  82268-4 0  9994
2 42005  97.3626 294.9565 0008973 105.8338 254.3891 15.28366528194395
1 42005U 17008BK  20226.82757717  .00002184  00000-0  81699-4 0  9995
2 42005  97.3626 295.1507 0008972 105.2616 254.9616 15.28367311194433
1 42005U 17008BK  20227.22040580  .00002164  00000-0  80959-4 0  9999
2 42005  97.3627 295.5390 0008970 104.1544 256.0693 15.28369131194490
1 42005U 17008BK  20227.74417688  .00002105  00000-0  78821-4 0  9993
2 42005  97.3627 296.0568 0008984 102.6688 257.5556 15.28371217194560
1 42005U 17008BK  20228.20247594  .00002112  00000-0  79052-4 0  9997
2 42005  97.3627 296.5098 0008987 101.3177 258.9073 15.28373169194641
1 42005U 17008BK  20228.66077467  .00002053  00000-0  76942-4 0  9996
2 42005  97.3628 296.9628 0009000 100.0282 260.1974 15.28374775194712
1 42005U 17008BK  20229.18454369  .00002059  00000-0  77153-4 0  9995
2 42005  97.3627 297.4806 0009004  98.5683 261.6577 15.28376899194786
1 42005U 17008BK  20229.44642793  .00002120  00000-0  79360-4 0  9995
2 42005  97.3628 297.7395 0009006  97.8878 262.3384 15.28378125194837
1 42005U 17008BK  20229.83925411  .00002043  00000-0  76556-4 0  9997
2 42005  97.3628 298.1278 0008995  96.7545 263.4719 15.28379421194897
1 42005U 17008BK  20230.23207962  .00002086  00000-0  78106-4 0  9997
2 42005  97.3627 298.5161 0008981  95.6351 264.5913 15.28381254194940
1 42005U 17008BK  20230.88678815  .00001986  00000-0  74500-4 0  9999
2 42005  97.3623 299.1633 0008953  93.5101 266.7163 15.28383662195055
1 42005U 17008BK  20231.14867112  .00002006  00000-0  75215-4 0  9997
2 42005  97.3623 299.4222 0008950  92.7423 267.4841 15.28384863195096
1 42005U 17008BK  20231.60696598  .00002105  00000-0  78766-4 0  9990
2 42005  97.3622 299.8752 0008954  91.4307 268.7959 15.28387269195152
1 42005U 17008BK  20231.86884899  .00001980  00000-0  74261-4 0  9997
2 42005  97.3622 300.1340 0008954  90.6819 269.5447 15.28387494195207
1 42005U 17008BK  20232.32714266  .00002332  00000-0  86986-4 0  9998
2 42005  97.3623 300.5872 0008970  89.6309 270.5959 15.28390413195274
1 42005U 17008BK  20232.71996582  .00002336  00000-0  87116-4 0  9994
2 42005  97.3622 300.9756 0008964  88.4774 271.7493 15.28391939195320
1 42005U 17008BK  20232.91637688  .00002145  00000-0  80209-4 0  9999
2 42005  97.3621 301.1695 0008930  87.6458 272.5804 15.28392718195362
1 42005U 17008BK  20233.30919952  .00002349  00000-0  87590-4 0  9996
2 42005  97.3620 301.5580 0008947  86.8156 273.4107 15.28394334195421
1 42005U 17008BK  20234.09484211  .00002158  00000-0  80688-4 0  9997
2 42005  97.3619 302.3344 0008895  84.2788 275.9466 15.28397859195533
1 42005U 17008BK  20234.22578313  .00001996  00000-0  74814-4 0  9992
2 42005  97.3619 302.4638 0008893  83.9139 276.3113 15.28397296195566
1 42005U 17008BK  20234.81501471  .00001944  00000-0  72952-4 0  9992
2 42005  97.3619 303.0463 0008885  82.2878 277.9370 15.28399268195655
1 42005U 17008BK  20235.14236494  .00001932  00000-0  72508-4 0  9993
2 42005  97.3618 303.3699 0008871  81.3322 278.8922 15.28400616195694
1 42005U 17008BK  20235.46971502  .00001991  00000-0  74642-4 0  9990
2 42005  97.3618 303.6934 0008864  80.4374 279.7867 15.28402201195755
1 42005U 17008BK  20235.73159474  .00002034  00000-0  76171-4 0  9994
2 42005  97.3617 303.9522 0008853  79.6903 280.5334 15.28403514195797
1 42005U 17008BK  20236.45176337  .00002290  00000-0  85409-4 0  9999
2 42005  97.3612 304.6644 0008856  77.9598 282.2633 15.28406971195891
1 42005U 17008BK  20236.84458160  .00002077  00000-0  77724-4 0  9993
2 42005  97.3616 305.0524 0008813  76.5376 283.6845 15.28408415195962
1 42005U 17008BK  20237.43380872  .00002554  00000-0  94932-4 0  9993
2 42005  97.3611 305.6351 0008810  75.1544 285.0671 15.28412011196051
1 42005U 17008BK  20237.76115693  .00002293  00000-0  85508-4 0  9995
2 42005  97.3611 305.9586 0008793  74.1737 286.0471 15.28412500196093
1 42005U 17008BK  20238.15397361  .00002391  00000-0  89048-4 0  9995
2 42005  97.3610 306.3468 0008777  73.0518 287.1684 15.28414757196165
1 42005U 17008BK  20238.74319827  .00002279  00000-0  84992-4 0  9999
2 42005  97.3610 306.9292 0008752  71.3859 288.8330 15.28417046196258
1 42005U 17008BK  20239.13601391  .00002301  00000-0  85801-4 0  9999
2 42005  97.3610 307.3174 0008733  70.1782 290.0398 15.28418971196306
1 42005U 17008BK  20239.46336017  .00002160  00000-0  80682-4 0  9990
2 42005  97.3611 307.6409 0008722  69.2800 290.9374 15.28419927196360
1 42005U 17008BK  20239.79070602  .00002243  00000-0  83682-4 0  9996
2 42005  97.3611 307.9644 0008702  68.3210 291.8955 15.28421638196410
1 42005U 17008BK  20240.18352072  .00002403  00000-0  89455-4 0  9997
2 42005  97.3611 308.3526 0008681  67.1233 293.0922 15.28423794196460
1 42005U 17008BK  20240.77274196  .00002315  00000-0  86290-4 0  9998
2 42005  97.3612 308.9349 0008643  65.3961 294.8178 15.28426038196563
1 42005U 17008BK  20241.29649342  .00002189  00000-0  81735-4 0  9993
2 42005  97.3613 309.4526 0008602  63.8762 296.3362 15.28427821196635
1 42005U 17008BK  20241.75477523  .00002202  00000-0  82190-4 0  9996
2 42005  97.3613 309.9055 0008574  62.4910 297.7200 15.28429843196716
1 42005U 17008BK  20242.47492968  .00002996  00000-0  11083-3 0  9998
2 42005  97.3613 310.6172 0008539  60.3168 299.8921 15.28436129196817
1 42005U 17008BK  20242.73680383  .00002915  00000-0  10791-3 0  9993
2 42005  97.3613 310.8761 0008519  59.5514 300.6567 15.28437205196864
1 42005U 17008BK  20243.26055134  .00002999  00000-0  11093-3 0  9990
2 42005  97.3612 311.3937 0008488  58.0198 302.1865 15.28440146196946
1 42005U 17008BK  20243.78429807  .00002877  00000-0  10653-3 0  9995
2 42005  97.3613 311.9115 0008451  56.4996 303.7051 15.28442417197015
1 42005U 17008BK  20244.24257490  .00003133  00000-0  11575-3 0  9994
2 42005  97.3612 312.3645 0008402  55.1595 305.0433 15.28445995197095
1 42005U 17008BK  20244.83178662  .00003246  00000-0  11983-3 0  9990
2 42005  97.3612 312.9469 0008358  53.4080 306.7927 15.28450141197180
1 42005U 17008BK  20245.09365784  .00003315  00000-0  12230-3 0  9995
2 42005  97.3611 313.2058 0008338  52.5404 307.6593 15.28452178197210
